start=new Date('2022-01-20T00:00:00.000Z').valueOf();
sats=[{"EPHEMERIS_TYPE":"0","BSTAR":"0.00091959000000","SEMIMAJOR_AXIS":"6925.317","RA_OF_ASC_NODE":"332.7378","GP_ID":"194197795","INCLINATION":"53.0559","COUNTRY_CODE":"US","ECCENTRICITY":"0.00018140","FILE":"3277711","TIME_SYSTEM":"UTC","ARG_OF_PERICENTER":"73.8422","PERIAPSIS":"545.926","TLE_LINE2":"2 47392  53.0559 332.7378 0001814  73.8422 286.2766 15.06410370 56394","SITE":"AFETR","ELEMENT_SET_NO":"999","REF_FRAME":"TEME","RCS_SIZE":"LARGE","EPOCH":"2022-01-19T03:19:15.666528","OBJECT_TYPE":"PAYLOAD","REV_AT_EPOCH":"5639","OBJECT_ID":"2021-005AV","MEAN_MOTION_DOT":"0.00013446","CENTER_NAME":"EARTH","PERIOD":"95.591","MEAN_MOTION_DDOT":"0.0000000000000","MEAN_ELEMENT_THEORY":"SGP4","LAUNCH_DATE":"2021-01-20","CLASSIFICATION_TYPE":"U","DECAY_DATE":null,"MEAN_MOTION":"15.06410370","NORAD_CAT_ID":"47392","TLE_LINE1":"1 47392U 21005AV  22019.13837577  .00013446  00000-0  91959-3 0  9992","OBJECT_NAME":"STARLINK-2113","MEAN_ANOMALY":"286.2766","APOAPSIS":"548.438"},{"MEAN_ELEMENT_THEORY":"SGP4","LAUNCH_DATE":"2021-01-20","CLASSIFICATION_TYPE":"U","CENTER_NAME":"EARTH","PERIOD":"95.593","MEAN_MOTION_DDOT":"0.0000000000000","TLE_LINE1":"1 47393U 21005AW  22019.52859973  .00003115  00000-0  22802-3 0  9993","OBJECT_NAME":"STARLINK-2114","MEAN_ANOMALY":"293.6502","APOAPSIS":"548.343","DECAY_DATE":null,"MEAN_MOTION":"15.06389502","NORAD_CAT_ID":"47393","REV_AT_EPOCH":"5619","OBJECT_ID":"2021-005AW","MEAN_MOTION_DOT":"0.00003115","ARG_OF_PERICENTER":"66.4654","SITE":"AFETR","TLE_LINE2":"2 47393  53.0547 305.9919 0001585  66.4654 293.6502 15.06389502 56195","PERIAPSIS":"546.148","FILE":"3277432","TIME_SYSTEM":"UTC","RCS_SIZE":"LARGE","EPOCH":"2022-01-19T12:41:11.016672","OBJECT_TYPE":"PAYLOAD","ELEMENT_SET_NO":"999","REF_FRAME":"TEME","BSTAR":"0.00022802000000","SEMIMAJOR_AXIS":"6925.381","RA_OF_ASC_NODE":"305.9919","GP_ID":"194191599","EPHEMERIS_TYPE":"0","ECCENTRICITY":"0.00015850","INCLINATION":"53.0547","COUNTRY_CODE":"US"},{"MEAN_MOTION_DOT":"0.00010304","REV_AT_EPOCH":"5656","OBJECT_ID":"2021-005AX","PERIOD":"95.591","CENTER_NAME":"EARTH","MEAN_MOTION_DDOT":"0.0000000000000","MEAN_ELEMENT_THEORY":"SGP4","CLASSIFICATION_TYPE":"U","LAUNCH_DATE":"2021-01-20","NORAD_CAT_ID":"47394","DECAY_DATE":null,"MEAN_MOTION":"15.06416402","TLE_LINE1":"1 47394U 21005AX  22019.74422004  .00010304  00000-0  70930-3 0  9992","OBJECT_NAME":"STARLINK-2115","MEAN_ANOMALY":"295.3762","APOAPSIS":"548.454","EPHEMERIS_TYPE":"0","RA_OF_ASC_NODE":"325.0245","GP_ID":"194197793","BSTAR":"0.00070930000000","SEMIMAJOR_AXIS":"6925.298","COUNTRY_CODE":"US","INCLINATION":"53.0538","ECCENTRICITY":"0.00018640","TIME_SYSTEM":"UTC","FILE":"3277711","ARG_OF_PERICENTER":"64.7420","TLE_LINE2":"2 47394  53.0538 325.0245 0001864  64.7420 295.3762 15.06416402 56561","PERIAPSIS":"545.872","SITE":"AFETR","ELEMENT_SET_NO":"999","REF_FRAME":"TEME","EPOCH":"2022-01-19T17:51:40.611456","OBJECT_TYPE":"PAYLOAD","RCS_SIZE":"LARGE"},{"OBJECT_ID":"2021-005AY","REV_AT_EPOCH":"5595","MEAN_MOTION_DOT":"0.00016761","MEAN_MOTION_DDOT":"0.0000000000000","PERIOD":"95.591","CENTER_NAME":"EARTH","CLASSIFICATION_TYPE":"U","LAUNCH_DATE":"2021-01-20","MEAN_ELEMENT_THEORY":"SGP4","MEAN_MOTION":"15.06417232","DECAY_DATE":null,"NORAD_CAT_ID":"47395","APOAPSIS":"548.406","TLE_LINE1":"1 47395U 21005AY  22019.31621772  .00016761  00000-0  11409-2 0  9997","MEAN_ANOMALY":"296.5002","OBJECT_NAME":"STARLINK-2117","EPHEMERIS_TYPE":"0","SEMIMAJOR_AXIS":"6925.296","BSTAR":"0.00114090000000","RA_OF_ASC_NODE":"321.9509","GP_ID":"194193100","INCLINATION":"53.0563","COUNTRY_CODE":"US","ECCENTRICITY":"0.00017980","FILE":"3277432","TIME_SYSTEM":"UTC","TLE_LINE2":"2 47395  53.0563 321.9509 0001798  63.6172 296.5002 15.06417232 55950","PERIAPSIS":"545.916","SITE":"AFETR","ARG_OF_PERICENTER":"63.6172","REF_FRAME":"TEME","ELEMENT_SET_NO":"999","RCS_SIZE":"MEDIUM","OBJECT_TYPE":"PAYLOAD","EPOCH":"2022-01-19T07:35:21.211008"},{"COUNTRY_CODE":"US","INCLINATION":"53.0557","ECCENTRICITY":"0.00017550","EPHEMERIS_TYPE":"0","GP_ID":"194197304","RA_OF_ASC_NODE":"330.8685","SEMIMAJOR_AXIS":"6925.337","BSTAR":"0.00055789000000","REF_FRAME":"TEME","ELEMENT_SET_NO":"999","OBJECT_TYPE":"PAYLOAD","EPOCH":"2022-01-19T13:24:20.334816","RCS_SIZE":"LARGE","TIME_SYSTEM":"UTC","FILE":"3277682","PERIAPSIS":"545.987","TLE_LINE2":"2 47396  53.0557 330.8685 0001755  64.9135 295.2036 15.06403676 56461","SITE":"AFETR","ARG_OF_PERICENTER":"64.9135","MEAN_MOTION_DOT":"0.00008039","OBJECT_ID":"2021-005AZ","REV_AT_EPOCH":"5646","NORAD_CAT_ID":"47396","MEAN_MOTION":"15.06403676","DECAY_DATE":null,"APOAPSIS":"548.418","TLE_LINE1":"1 47396U 21005AZ  22019.55856869  .00008039  00000-0  55789-3 0  9990","MEAN_ANOMALY":"295.2036","OBJECT_NAME":"STARLINK-2118","MEAN_MOTION_DDOT":"0.0000000000000","PERIOD":"95.592","CENTER_NAME":"EARTH","CLASSIFICATION_TYPE":"U","LAUNCH_DATE":"2021-01-20","MEAN_ELEMENT_THEORY":"SGP4"},{"BSTAR":"0.00098278000000","SEMIMAJOR_AXIS":"6925.303","RA_OF_ASC_NODE":"0.8760","GP_ID":"194197298","EPHEMERIS_TYPE":"0","ECCENTRICITY":"0.00017850","INCLINATION":"53.0542","COUNTRY_CODE":"US","ARG_OF_PERICENTER":"57.4948","PERIAPSIS":"545.932","TLE_LINE2":"2 47397  53.0542   0.8760 0001785  57.4948 302.6213 15.06414795 55436","SITE":"AFETR","FILE":"3277682","TIME_SYSTEM":"UTC","RCS_SIZE":"LARGE","EPOCH":"2022-01-19T13:20:21.637536","OBJECT_TYPE":"PAYLOAD","ELEMENT_SET_NO":"999","REF_FRAME":"TEME","REV_AT_EPOCH":"5543","OBJECT_ID":"2021-005BA","MEAN_MOTION_DOT":"0.00014393","MEAN_ELEMENT_THEORY":"SGP4","LAUNCH_DATE":"2021-01-20","CLASSIFICATION_TYPE":"U","PERIOD":"95.591","CENTER_NAME":"EARTH","MEAN_MOTION_DDOT":"0.0000000000000","TLE_LINE1":"1 47397U 21005BA  22019.55580599  .00014393  00000-0  98278-3 0  9995","MEAN_ANOMALY":"302.6213","OBJECT_NAME":"STARLINK-2119","APOAPSIS":"548.404","DECAY_DATE":null,"MEAN_MOTION":"15.06414795","NORAD_CAT_ID":"47397"},{"ELEMENT_SET_NO":"999","REF_FRAME":"TEME","RCS_SIZE":"LARGE","EPOCH":"2022-01-19T14:17:25.993536","OBJECT_TYPE":"PAYLOAD","FILE":"3277432","TIME_SYSTEM":"UTC","ARG_OF_PERICENTER":"75.0370","PERIAPSIS":"546.318","TLE_LINE2":"2 47398  53.0550 330.6888 0001347  75.0370 285.0768 15.06387724 55856","SITE":"AFETR","INCLINATION":"53.0550","COUNTRY_CODE":"US","ECCENTRICITY":"0.00013470","EPHEMERIS_TYPE":"0","BSTAR":"0.00009557300000","SEMIMAJOR_AXIS":"6925.386","RA_OF_ASC_NODE":"330.6888","GP_ID":"194192349","DECAY_DATE":null,"MEAN_MOTION":"15.06387724","NORAD_CAT_ID":"47398","MEAN_ANOMALY":"285.0768","TLE_LINE1":"1 47398U 21005BB  22019.59543974  .00001142  00000-0  95573-4 0  9990","OBJECT_NAME":"STARLINK-2120","APOAPSIS":"548.184","PERIOD":"95.593","CENTER_NAME":"EARTH","MEAN_MOTION_DDOT":"0.0000000000000","MEAN_ELEMENT_THEORY":"SGP4","LAUNCH_DATE":"2021-01-20","CLASSIFICATION_TYPE":"U","REV_AT_EPOCH":"5585","OBJECT_ID":"2021-005BB","MEAN_MOTION_DOT":"0.00001142"},{"SEMIMAJOR_AXIS":"6925.355","BSTAR":"0.00034972000000","RA_OF_ASC_NODE":"340.6391","GP_ID":"194199742","EPHEMERIS_TYPE":"0","ECCENTRICITY":"0.00016390","INCLINATION":"53.0572","COUNTRY_CODE":"US","TLE_LINE2":"2 47399  53.0572 340.6391 0001639  62.7611 297.3545 15.06397960 55713","PERIAPSIS":"546.085","SITE":"AFETR","ARG_OF_PERICENTER":"62.7611","FILE":"3277832","TIME_SYSTEM":"UTC","RCS_SIZE":"LARGE","OBJECT_TYPE":"PAYLOAD","EPOCH":"2022-01-19T14:35:57.155424","REF_FRAME":"TEME","ELEMENT_SET_NO":"999","OBJECT_ID":"2021-005BC","REV_AT_EPOCH":"5571","MEAN_MOTION_DOT":"0.00004931","CLASSIFICATION_TYPE":"U","LAUNCH_DATE":"2021-01-20","MEAN_ELEMENT_THEORY":"SGP4","MEAN_MOTION_DDOT":"0.0000000000000","PERIOD":"95.592","CENTER_NAME":"EARTH","APOAPSIS":"548.355","TLE_LINE1":"1 47399U 21005BC  22019.60830041  .00004931  00000-0  34972-3 0  9991","MEAN_ANOMALY":"297.3545","OBJECT_NAME":"STARLINK-2121","MEAN_MOTION":"15.06397960","DECAY_DATE":null,"NORAD_CAT_ID":"47399"},{"EPOCH":"2022-01-19T12:36:31.376160","OBJECT_TYPE":"PAYLOAD","RCS_SIZE":"LARGE","ELEMENT_SET_NO":"999","REF_FRAME":"TEME","ARG_OF_PERICENTER":"65.2633","SITE":"AFETR","TLE_LINE2":"2 47400  53.0558 320.9996 0001820  65.2633 294.8545 15.06396400 55985","PERIAPSIS":"545.964","TIME_SYSTEM":"UTC","FILE":"3277432","ECCENTRICITY":"0.00018200","COUNTRY_CODE":"US","INCLINATION":"53.0558","RA_OF_ASC_NODE":"320.9996","GP_ID":"194193351","BSTAR":"0.00034565000000","SEMIMAJOR_AXIS":"6925.360","EPHEMERIS_TYPE":"0","TLE_LINE1":"1 47400U 21005BD  22019.52536315  .00004870  00000-0  34565-3 0  9992","MEAN_ANOMALY":"294.8545","OBJECT_NAME":"STARLINK-2122","APOAPSIS":"548.485","NORAD_CAT_ID":"47400","DECAY_DATE":null,"MEAN_MOTION":"15.06396400","MEAN_ELEMENT_THEORY":"SGP4","LAUNCH_DATE":"2021-01-20","CLASSIFICATION_TYPE":"U","CENTER_NAME":"EARTH","PERIOD":"95.592","MEAN_MOTION_DDOT":"0.0000000000000","MEAN_MOTION_DOT":"0.00004870","REV_AT_EPOCH":"5598","OBJECT_ID":"2021-005BD"},{"REF_FRAME":"TEME","ELEMENT_SET_NO":"999","RCS_SIZE":"LARGE","OBJECT_TYPE":"PAYLOAD","EPOCH":"2022-01-19T08:16:30.920448","FILE":"3277432","TIME_SYSTEM":"UTC","PERIAPSIS":"546.156","TLE_LINE2":"2 47401  53.0560 331.8295 0001598  60.5330 299.5819 15.06383983 55827","SITE":"AFETR","ARG_OF_PERICENTER":"60.5330","INCLINATION":"53.0560","COUNTRY_CODE":"US","ECCENTRICITY":"0.00015980","EPHEMERIS_TYPE":"0","SEMIMAJOR_AXIS":"6925.398","BSTAR":"0.00028689000000","GP_ID":"194191600","RA_OF_ASC_NODE":"331.8295","MEAN_MOTION":"15.06383983","DECAY_DATE":null,"NORAD_CAT_ID":"47401","APOAPSIS":"548.369","MEAN_ANOMALY":"299.5819","TLE_LINE1":"1 47401U 21005BE  22019.34480232  .00003992  00000-0  28689-3 0  9993","OBJECT_NAME":"STARLINK-2123","MEAN_MOTION_DDOT":"0.0000000000000","CENTER_NAME":"EARTH","PERIOD":"95.593","LAUNCH_DATE":"2021-01-20","CLASSIFICATION_TYPE":"U","MEAN_ELEMENT_THEORY":"SGP4","OBJECT_ID":"2021-005BE","REV_AT_EPOCH":"5582","MEAN_MOTION_DOT":"0.00003992"}];
